{"fetched_at":"2026-03-30T13:17:50Z","count":15418,"tles":[{"name":"STARLINK-31381","line1":"1 59469U 24068Q   26087.86149983  .00000758  00000+0  37048-4 0  9999","line2":"2 59469  43.0033 282.8878 0001138 276.0212  84.0510 15.27581677111497","category":"Starlink"}]}